[
    {
        "Altitude(m)": 604234.6152702954,
        "Argument of Periapsis(deg)": 0.0,
        "Eccentricity": 0.0,
        "Inclination(deg)": 60.0,
        "Latitude(deg)": 14.117270211453137,
        "Longitude(deg)": 31.727305598317336,
        "Mean Anomaly(deg)": -196.36359999999993,
        "RAAN(deg)": 320.0,
        "Satellite Name": "Test1 1418",
        "Satellite Number": 1418,
        "Semi-Major Axis(m)": 6980739.136638005,
        "Time(s)": 0
    },
    {
        "Altitude(m)": 604223.4437020792,
        "Argument of Periapsis(deg)": 0.00010418945913296404,
        "Eccentricity": 0.0,
        "Inclination(deg)": 60.0,
        "Latitude(deg)": 13.58240701929582,
        "Longitude(deg)": 32.01421567164642,
        "Mean Anomaly(deg)": -195.7434938545382,
        "RAAN(deg)": 319.9995799508602,
        "Satellite Name": "Test1 1418",
        "Satellite Number": 1418,
        "Semi-Major Axis(m)": 6980739.136638005,
        "Time(s)": 10
    }
]